OBJECT_NAME,OBJECT_ID,EPOCH,MEAN_MOTION,ECCENTRICITY,INCLINATION,RA_OF_ASC_NODE,ARG_OF_PERICENTER,MEAN_ANOMALY,EPHEMERIS_TYPE,CLASSIFICATION_TYPE,NORAD_CAT_ID,ELEMENT_SET_NO,REV_AT_EPOCH,BSTAR,MEAN_MOTION_DOT,MEAN_MOTION_DDOT
STARLINK-32912,2025-037M,2025-10-03T10:52:50.183040,14.98335593,.00031499,70.0033,30.7441,266.7396,93.3403,0,U,63088,999,3515,.71718097E-3,.8476E-4,0
STARLINK-32910,2025-037N,2025-10-03T11:40:55.105824,14.98345837,.0003689,70.0034,30.8534,284.2104,75.8645,0,U,63089,999,3505,.57424183E-3,.6768E-4,0
STARLINK-32903,2025-037P,2025-10-03T10:46:35.099040,14.98336292,.00038699,70.0026,30.7313,275.7645,84.3072,0,U,63090,999,3491,.10406679E-2,.12349E-3,0
STARLINK-32925,2025-037Q,2025-10-03T10:52:35.803488,14.98343976,.00031361,70.0029,30.7410,269.9563,90.1237,0,U,63091,999,3499,.13305312E-2,.15824E-3,0
STARLINK-32924,2025-037R,2025-10-03T14:16:53.336064,14.98340350,.00032958,70.0027,30.4369,269.5298,90.5483,0,U,63092,999,3507,.10153099E-2,.12046E-3,0
STARLINK-32900,2025-037S,2025-10-03T11:22:38.853984,14.98348523,.00032552,70.0028,30.8148,267.1800,92.8986,0,U,63093,999,3491,.11083112E-2,.13163E-3,0
STARLINK-32927,2025-037T,2025-10-03T10:28:37.420608,14.98327981,.00026318,70.0056,31.0891,229.3656,130.7275,0,U,63094,999,3499,.3926269E-2,.47067E-3,0
STARLINK-32907,2025-037U,2025-10-03T11:46:42.999744,14.98351959,.00029329,70.0024,30.8682,277.5285,82.5540,0,U,63095,999,3500,.2804221E-2,.33546E-3,0
STARLINK-32911,2025-037V,2025-10-03T13:52:52.920192,14.98342863,.00033586,70.0023,30.7743,270.0543,90.0231,0,U,63096,999,3506,.10119329E-2,.12006E-3,0
STARLINK-32923,2025-037W,2025-10-03T10:58:34.081824,14.98404341,.00030224,70.0029,30.7567,272.4892,87.5921,0,U,63097,999,3505,.20595134E-2,.24615E-3,0
STARLINK-32913,2025-037X,2025-10-03T14:28:53.808384,14.98337835,.00032876,70.0027,30.4572,270.9231,89.1551,0,U,63098,999,3508,.49592799E-3,.5831E-4,0
STARLINK-11629 [DTC],2025-039A,2025-10-03T13:08:30.278688,15.70862654,.00017502,42.9983,103.8203,275.9667,84.1001,0,U,63104,999,3490,.2358918E-2,.31426E-2,0
STARLINK-11624 [DTC],2025-039B,2025-10-03T14:10:58.352160,15.70915857,.00019392,42.9992,104.1692,246.1746,113.8918,0,U,63105,999,3490,.18534778E-2,.245313E-2,0
STARLINK-11584 [DTC],2025-039C,2025-10-03T14:09:39.513024,15.70915958,.00019407,42.9997,104.1626,256.6282,103.4369,0,U,63106,999,3490,.22900785E-2,.30543E-2,0
STARLINK-11627 [DTC],2025-039D,2025-10-03T13:23:47.722272,15.70867911,.00016619,42.9979,103.9049,270.3404,89.7273,0,U,63107,999,3490,.29061448E-2,.390998E-2,0
STARLINK-11632 [DTC],2025-039E,2025-10-03T13:46:43.697568,15.70884493,.00013886,42.9974,104.0325,243.1734,116.8992,0,U,63108,999,3490,.12976076E-2,.169814E-2,0
STARLINK-11625 [DTC],2025-039F,2025-10-03T13:54:22.598208,15.70855665,.00010659,42.9972,104.0736,274.2191,85.8555,0,U,63109,999,3490,.21979542E-2,.291908E-2,0
STARLINK-11601 [DTC],2025-039G,2025-10-03T10:28:19.079616,15.71018106,.00023216,42.9986,104.7129,240.8168,119.2468,0,U,63110,999,3488,.3088481E-2,.419643E-2,0
STARLINK-11630 [DTC],2025-039H,2025-10-03T14:02:00.933792,15.70921371,.0001695,43.0000,104.1179,267.3400,92.7273,0,U,63111,999,3490,.22762703E-2,.303586E-2,0
STARLINK-11590 [DTC],2025-039J,2025-10-03T12:45:45.130176,15.71073102,.00024843,42.9983,104.5859,238.2080,121.8545,0,U,63112,999,3489,.33160389E-2,.453506E-2,0
STARLINK-11598 [DTC],2025-039K,2025-10-03T13:39:04.987872,15.70876183,.00016772,42.9976,103.9861,225.5734,134.4996,0,U,63113,999,3490,.29040175E-2,.390839E-2,0
STARLINK-11600 [DTC],2025-039L,2025-10-03T13:16:08.583168,15.70864360,.0001281,42.9976,103.8579,293.8647,66.2087,0,U,63114,999,3490,.23660205E-2,.315272E-2,0
STARLINK-11597 [DTC],2025-039M,2025-10-03T13:00:51.335712,15.70869044,.0001455,42.9987,103.7735,251.7185,108.3525,0,U,63115,999,3490,.29541959E-2,.397824E-2,0
STARLINK-11591 [DTC],2025-039N,2025-10-03T14:24:45.520704,15.70975436,.00021208,42.9983,103.3461,247.4056,112.6587,0,U,63116,999,3491,.20076461E-2,.26713E-2,0
STARLINK-32955,2025-039P,2025-10-03T11:02:28.044384,15.27546020,.00013413,43.0028,180.4690,271.9169,88.1529,0,U,63117,999,3402,-.16330928E-3,-.4748E-4,0
STARLINK-32945,2025-039Q,2025-10-03T03:22:47.507232,15.27542380,.00014592,43.0037,182.3715,272.0262,88.0423,0,U,63118,999,3397,.25263406E-2,.69838E-3,0
STARLINK-32941,2025-039R,2025-10-03T01:54:13.110624,15.27652342,.0001572,43.0000,171.5071,279.4351,80.6323,0,U,63119,999,3409,.15263711E-2,.42074E-3,0
STARLINK-32942,2025-039S,2025-10-03T03:32:02.929632,15.27567444,.00014977,43.0001,182.4162,277.5738,82.4944,0,U,63120,999,3397,.25507652E-2,.70577E-3,0
STARLINK-32947,2025-039T,2025-10-03T02:45:47.346912,15.27610601,.00012885,43.0032,182.1746,273.3539,86.7166,0,U,63121,999,3397,.30747051E-2,.85411E-3,0
STARLINK-32961,2025-039U,2025-10-03T03:48:39.068064,15.27723932,.00035338,42.9978,182.5038,255.7492,104.2967,0,U,63122,999,3397,.33166075E-2,.92571E-3,0
STARLINK-32948,2025-039V,2025-10-03T14:36:42.178464,15.27583139,.0001051,42.9965,179.8574,259.5927,100.4806,0,U,63123,999,3404,.15212539E-2,.41841E-3,0
STARLINK-32957,2025-039W,2025-10-03T03:57:56.130336,15.27612354,.00028751,43.0011,182.5532,264.2120,95.8404,0,U,63124,999,3397,.20782048E-2,.57432E-3,0
SUPERVIEW NEO-1 03,2025-040A,2025-10-03T11:14:15.572256,15.21735558,.0000764,97.3339,32.2050,73.0947,287.0373,0,U,63125,999,3314,.1727062E-5,-.28E-6,0
SUPERVIEW NEO-1 04,2025-040B,2025-09-23T09:47:29.906592,15.21652782,.000109,97.3335,22.4245,73.9602,286.1755,0,U,63126,999,3162,-.10356125E-3,-.2405E-4,0
COSMOS 2584 [GLONASS-K2],2025-042A,2025-09-26T21:16:54.679872,2.13103551,.00066848,64.9329,81.7630,202.9147,157.0838,0,U,63130,999,443,0,.24E-6,0
STARLINK-11609 [DTC],2025-043A,2025-10-03T14:14:01.069152,15.70905962,.00019894,42.9986,117.7611,270.3860,89.6780,0,U,63132,999,3475,.11950496E-2,.156244E-2,0
STARLINK-11604 [DTC],2025-043B,2025-10-03T14:44:36.192192,15.70856024,.00015043,42.9989,117.9301,243.4488,116.6226,0,U,63133,999,3464,.21982199E-2,.291945E-2,0
STARLINK-11605 [DTC],2025-043C,2025-10-03T14:21:40.032864,15.70873787,.00010886,42.9977,117.8002,253.1423,106.9325,0,U,63134,999,3464,.25747388E-2,.344489E-2,0
STARLINK-11610 [DTC],2025-043D,2025-10-03T14:29:18.562848,15.70921785,.0002091,42.9982,117.8439,274.1953,85.8676,0,U,63135,999,3464,.20771006E-2,.276064E-2,0
STARLINK-11613 [DTC],2025-043E,2025-10-03T14:36:56.669472,15.71193516,.00081976,43.0001,117.8858,166.6737,193.4348,0,U,63136,999,3476,.2687508E-2,.365811E-2,0
STARLINK-11616 [DTC],2025-043F,2025-10-03T15:01:00.963840,15.70883396,.00018128,42.9998,117.1233,237.0863,122.9831,0,U,63137,999,3477,.13552634E-2,.177539E-2,0
STARLINK-11611 [DTC],2025-043G,2025-10-03T15:22:38.593344,15.70863997,.00026057,42.9997,117.2462,282.7744,77.2833,0,U,63138,999,3477,.28766786E-2,.386762E-2,0
STARLINK-11628 [DTC],2025-043H,2025-10-03T13:58:44.002272,15.70857259,.00015202,42.9982,117.6711,281.6178,78.4519,0,U,63139,999,3476,.11232985E-2,.146357E-2,0
STARLINK-11607 [DTC],2025-043J,2025-10-03T16:00:03.000096,15.70865353,.00017392,43.0002,116.9405,259.3815,307.8786,0,U,63140,999,590,-.22915887E-3,-.2978E-3,0
STARLINK-11522 [DTC],2025-043K,2025-10-03T13:43:26.385024,15.70844983,.00012175,42.9989,117.5861,263.8784,96.1945,0,U,63141,999,3458,.22691649E-2,.301599E-2,0
STARLINK-11503 [DTC],2025-043L,2025-10-03T14:52:03.705312,15.70888920,.00020987,42.9989,117.0723,247.6721,112.3925,0,U,63142,999,3459,.17608459E-2,.232403E-2,0
STARLINK-11579 [DTC],2025-043M,2025-10-03T13:28:08.806656,15.71093650,.00027612,42.9988,117.4967,246.0341,114.0238,0,U,63143,999,3464,.36451252E-2,.501945E-2,0
STARLINK-11581 [DTC],2025-043N,2025-10-03T14:06:22.599648,15.70976217,.00018106,42.9984,117.7100,245.3912,114.6767,0,U,63144,999,3476,.20574632E-2,.274006E-2,0
STARLINK-32949,2025-043P,2025-10-03T14:17:36.844512,15.27608373,.00016616,42.9955,183.6899,74.6944,285.4091,0,U,63145,999,3390,.16665414E-2,.45924E-3,0
STARLINK-32952,2025-043Q,2025-10-03T04:10:32.321280,15.27638884,.00017189,43.0038,192.5956,259.3710,100.6948,0,U,63146,999,3382,.24713934E-2,.68503E-3,0
STARLINK-32936,2025-043R,2025-10-03T02:40:05.051712,15.27633230,.00051759,43.0009,193.0031,239.1107,120.9236,0,U,63147,999,3318,.19163586E-2,.52953E-3,0
STARLINK-32937,2025-043S,2025-10-03T04:15:39.400704,15.27588408,.00016923,42.9990,185.7106,269.6341,90.4317,0,U,63148,999,3327,.31066915E-2,.86255E-3,0
STARLINK-32939,2025-043T,2025-10-03T04:00:51.675264,15.27627289,.00012977,42.9997,185.6351,282.9885,77.0822,0,U,63149,999,3327,.22031642E-2,.60955E-3,0
STARLINK-32919,2025-043U,2025-10-02T11:05:29.167296,15.27630263,.0000748,42.9980,189.7999,295.1636,64.9138,0,U,63150,999,3316,.33439E-2,.93065E-3,0
STARLINK-32876,2025-043V,2025-10-03T03:33:06.031008,15.27596600,.00018357,43.0037,185.4893,274.4350,85.6292,0,U,63151,999,3327,.241855E-2,.66932E-3,0
STARLINK-32915,2025-043W,2025-10-03T04:16:04.762560,15.27651256,.00016181,43.0020,192.5945,276.3985,83.6682,0,U,63152,999,3319,.21047981E-2,.58243E-3,0
SEDNA-2,2025-009DQ,2025-10-03T03:56:42.486432,15.07023076,.0009602,97.4835,351.2982,220.6822,139.3690,0,U,63153,999,3934,.15344111E-2,.23009E-3,0
TJS-15,2025-045A,2025-10-02T18:32:13.079040,1.00275343,.000219,0.0430,26.7870,274.4931,82.8368,0,U,63157,999,217,0,-.265E-5,0
QIANFAN-73,2025-046A,2025-10-03T14:44:21.581088,13.50978951,.00135387,88.9814,327.2779,333.7038,26.3425,0,U,63159,999,3794,.32597345E-3,.222E-5,0
QIANFAN-74,2025-046B,2025-10-03T14:20:36.920256,13.50968490,.00022454,88.9814,327.1680,103.6872,256.4530,0,U,63160,999,3800,.30217935E-3,.207E-5,0
QIANFAN-75,2025-046C,2025-10-03T14:02:52.040256,13.50976419,.00147038,88.9816,327.4018,336.5913,23.4567,0,U,63161,999,3787,.39763198E-3,.269E-5,0
QIANFAN-76,2025-046D,2025-10-02T02:23:53.708352,13.50975020,.00124246,88.9819,327.5356,343.2256,16.8483,0,U,63162,999,3768,.24320374E-3,.169E-5,0
